[{"OBJECT_NAME":"YAOGAN-36 02A","OBJECT_ID":"2022-133A","EPOCH":"2026-03-10T00:04:36.049728","MEAN_MOTION":15.23118612,"ECCENTRICITY":0.00301484,"INCLINATION":35.0077,"RA_OF_ASC_NODE":23.5078,"ARG_OF_PERICENTER":29.898,"MEAN_ANOMALY":330.345,"EPHEMERIS_TYPE":0,"CLASSIFICATION_TYPE":"U","NORAD_CAT_ID":54042,"ELEMENT_SET_NO":999,"REV_AT_EPOCH":18962,"BSTAR":0.00070143583,"MEAN_MOTION_DOT":0.00017174,"MEAN_MOTION_DDOT":0},{"OBJECT_NAME":"STARLINK-31471","OBJECT_ID":"2024-076E","EPOCH":"2026-03-09T03:53:44.273472","MEAN_MOTION":15.27566798,"ECCENTRICITY":0.00010168,"INCLINATION":43.0065,"RA_OF_ASC_NODE":11.8378,"ARG_OF_PERICENTER":285.9523,"MEAN_ANOMALY":74.1216,"EPHEMERIS_TYPE":0,"CLASSIFICATION_TYPE":"U","NORAD_CAT_ID":59568,"ELEMENT_SET_NO":999,"REV_AT_EPOCH":10633,"BSTAR":-5.4536425e-5,"MEAN_MOTION_DOT":-1.762e-5,"MEAN_MOTION_DDOT":0}]
